[{"OBJECT_NAME":"STARLINK-4420","OBJECT_ID":"2022-105G","EPOCH":"2026-03-09T16:08:00.093120","MEAN_MOTION":15.05644598,"ECCENTRICITY":0.00020924,"INCLINATION":97.6024,"RA_OF_ASC_NODE":311.1617,"ARG_OF_PERICENTER":91.2741,"MEAN_ANOMALY":268.8726,"EPHEMERIS_TYPE":0,"CLASSIFICATION_TYPE":"U","NORAD_CAT_ID":53654,"ELEMENT_SET_NO":999,"REV_AT_EPOCH":19329,"BSTAR":3.3005245e-5,"MEAN_MOTION_DOT":4.15e-6,"MEAN_MOTION_DDOT":0},{"OBJECT_NAME":"PEGASUS DEB","OBJECT_ID":"1994-029ZE","EPOCH":"2026-03-08T13:49:14.638368","MEAN_MOTION":13.44629817,"ECCENTRICITY":0.07289068,"INCLINATION":81.5203,"RA_OF_ASC_NODE":278.2553,"ARG_OF_PERICENTER":266.581,"MEAN_ANOMALY":85.1759,"EPHEMERIS_TYPE":0,"CLASSIFICATION_TYPE":"U","NORAD_CAT_ID":24602,"ELEMENT_SET_NO":999,"REV_AT_EPOCH":43194,"BSTAR":0.00096331603,"MEAN_MOTION_DOT":2.96e-5,"MEAN_MOTION_DDOT":0}]
